CCSDS_OEM_VERS = 2.0  
CREATION_DATE  = 2026-05-08T16:27:37
ORIGINATOR     = ESOC/OPS-GFA                            
 
 



META_START
OBJECT_NAME          = LISA                                    
OBJECT_ID            = -1000                                   
CENTER_NAME          = SUN                     
REF_FRAME            = EME2000 
TIME_SYSTEM          = TCB
START_TIME           = 2036-12-23T00:00:30.346418            
STOP_TIME            = 2047-09-08T09:05:06.374890            
INTERPOLATION        = HERMITE                                 
INTERPOLATION_DEGREE = 7                                       
META_STOP

2043-11-11T10:32:56.421131     1.31773681056383356e+08    6.60430926444319040e+07    2.97538566800127029e+07   -1.42106337805825191e+01    2.38220057969171606e+01    1.04782770190303935e+01   -5.14358867808291519e-06   -2.57766810432563020e-06   -1.16130125948196791e-06
2043-11-12T06:43:14.184939     1.30728210833591178e+08    6.77661379676473886e+07    3.05116778068765104e+07   -1.45826523200342208e+01    2.36323874218818943e+01    1.03928755469181304e+01   -5.10217699925549493e-06   -2.64460965308355665e-06   -1.19073985192401228e-06
2043-11-13T02:53:31.948748     1.29655835563004449e+08    6.94752376185511053e+07    3.12632198717197329e+07   -1.49516262484026417e+01    2.34379279275369008e+01    1.03053453218078879e+01   -5.05973709753559780e-06   -2.71099749783911752e-06   -1.21992930202312564e-06
2043-11-13T23:03:49.712556     1.28556779055102661e+08    7.11700415416114479e+07    3.20083289620243460e+07   -1.53174812238621776e+01    2.32386679908134788e+01    1.02157046416024624e+01   -5.01627795633879435e-06   -2.77681875715750239e-06   -1.24886394917952589e-06
2043-11-14T19:14:07.476364     1.27431270461677790e+08    7.28502026236589551e+07    3.27468524887004346e+07   -1.56801435617550240e+01    2.30346492210017821e+01    1.01239722138904131e+01   -4.97180869502300486e-06   -2.84206063671515818e-06   -1.27753817188656495e-06
2043-11-15T15:24:25.240173     1.26279544257419288e+08    7.45153768002171069e+07    3.34786392330415510e+07   -1.60395402451387952e+01    2.28259141528593013e+01    1.00301671528541476e+01   -4.92633858674280782e-06   -2.90671044440199150e-06   -1.30594639448605483e-06
2043-11-16T11:34:43.003981     1.25101840206458822e+08    7.61652231427823156e+07    3.42035393851916865e+07   -1.63955989364840278e+01    2.26125062387193729e+01    9.93430897573081495e+00   -4.87987707236657417e-06   -2.97075560280195268e-06   -1.33408309274785633e-06
2043-11-17T07:45:00.767790     1.23898403316960379e+08    7.77994039311009645e+07    3.49214045759270787e+07   -1.67482479902395269e+01    2.23944698397883464e+01    9.83641759891063572e+00   -4.83243377046196837e-06   -3.03418365905714954e-06   -1.36194279827597844e-06
2043-11-18T03:55:18.531598     1.22669483786849946e+08    7.94175847144743055e+07    3.56320879035483971e+07   -1.70974164659797729e+01    2.21718502168216709e+01    9.73651333375796035e+00   -4.78401848333907881e-06   -3.09698229210902657e-06   -1.38952010173832533e-06
2043-11-19T00:05:36.295406     1.21415336943778887e+08    8.10194343661221713e+07    3.63354439576789960e+07   -1.74430341418485853e+01    2.19446935203690181e+01    9.63461688224036195e+00   -4.73464119916975345e-06   -3.15913931732757577e-06   -1.41680965492495596e-06
2043-11-19T20:15:54.059215     1.20136223182414487e+08    8.26046251346361786e+07    3.70313288417647481e+07   -1.77850315280133664e+01    2.17130467807786189e+01    9.53074933245101619e+00   -4.68431209015539731e-06   -3.22064268851187893e-06   -1.44380617162741900e-06
2043-11-20T16:26:11.823023     1.18832407902152061e+08    8.41728326965534389e+07    3.77196001960711032e+07   -1.81233398798439787e+01    2.14769578981510030e+01    9.42493215410970464e+00   -4.63304150677801326e-06   -3.28148049728429785e-06   -1.47050442734919527e-06
2043-11-21T12:36:29.586831     1.17504161448342428e+08    8.57237362140814066e+07    3.84001172229730189e+07   -1.84578912105307040e+01    2.12364756324322492e+01    9.31718719412768870e+00   -4.58083996810431843e-06   -3.34164096985676257e-06   -1.49689925783739453e-06
2043-11-22T08:46:47.350640     1.16151759060128659e+08    8.72570184020050168e+07    3.90727407163332701e+07   -1.87886183028552907e+01    2.09916495938369962e+01    9.20753667232176198e+00   -4.52771814813422852e-06   -3.40111246116871173e-06   -1.52298555643585688e-06
2043-11-23T04:57:05.114448     1.14775480827985942e+08    8.87723656078064740e+07    3.97373330967648625e+07   -1.91154547198295219e+01    2.07425302337912996e+01    9.09600317736277475e+00   -4.47368685831224982e-06   -3.45988344646053265e-06   -1.54875827028795492e-06
2043-11-24T01:07:22.878257     1.13375611664059073e+08    9.02694679090291560e+07    4.03937584545729160e+07   -1.94383348139153291e+01    2.04891688365855806e+01    8.98260966304389896e+00   -4.41875702591255710e-06   -3.51794251012301000e-06   -1.57421239531768190e-06
2043-11-24T21:17:40.642065     1.11952441288390577e+08    9.17480192319157422e+07    4.10418826021720767e+07   -1.97571937345408450e+01    2.02316175119277553e+01    8.86737944495396668e+00   -4.36293966869786842e-06   -3.57527833204104008e-06   -1.59934297008706641e-06
2043-11-25T17:33:01.348118     1.10500183233838663e+08    9.32137668322528452e+07    4.16842238066453561e+07   -2.00732719593740256e+01    1.99688288913625556e+01    8.74984415457693210e+00   -4.30600810363769236e-06   -3.63211461099522028e-06   -1.62424800650823959e-06
2043-11-26T13:48:22.054172     1.09025028681733400e+08    9.46602012645757049e+07    4.23179283412466049e+07   -2.03851668357618898e+01    1.97019230633984641e+01    8.63050499266259585e+00   -4.24820471437941336e-06   -3.68819937535326532e-06   -1.64881705249602971e-06
2043-11-27T10:03:42.760226     1.07527285000197232e+08    9.60870243344747871e+07    4.29428655761376843e+07   -2.06928152203379199e+01    1.94309552260310809e+01    8.50938663369234938e+00   -4.18954133061702462e-06   -3.74352175236582162e-06   -1.67304534794666877e-06
2043-11-28T06:19:03.466279     1.06007264108809873e+08    9.74939418488814086e+07    4.35589066700382754e+07   -2.09961548364542736e+01    1.91559813662582386e+01    8.38651409753794930e+00   -4.13002989685706381e-06   -3.79807097818075606e-06   -1.69692818144169598e-06
2043-11-29T02:34:24.172333     1.04465282434530661e+08    9.88806637185163200e+07    4.41659246153608337e+07   -2.12951242830813001e+01    1.88770582514464067e+01    8.26191274560263089e+00   -4.06968248625999038e-06   -3.85183641622054629e-06   -1.72046089843708162e-06
2043-11-29T22:49:44.878386     1.02901660857583702e+08    1.00246904038106084e+08    4.47637942734682411e+07   -2.15896630445966125e+01    1.85942434194821686e+01    8.13560827642102424e+00   -4.00851131128477913e-06   -3.90480757218724703e-06   -1.74363890794437410e-06
2043-11-30T19:05:05.584440     1.01316724649325252e+08    1.01592381149075896e+08    4.53523924021458626e+07   -2.18797115012340484e+01    1.83075951679522291e+01    8.00762672082673888e+00   -3.94652873114349455e-06   -3.95697410570249690e-06   -1.76645768770748245e-06
2043-12-01T15:20:26.290494     9.97108034041241258e+07    1.02916817689412445e+08    4.59315976773726419e+07   -2.21652109399594650e+01    1.80171725425976490e+01    7.87799443679747036e+00   -3.88374725605554258e-06   -4.00832583857418176e-06   -1.78891278787115925e-06
2043-12-02T11:35:46.996547     9.80842309672863781e+07    1.04219940635390431e+08    4.65012907114763036e+07   -2.24461035655405325e+01    1.77230353252879738e+01    7.74673810408742902e+00   -3.82017954831146524e-06   -4.05885275969686042e-06   -1.81099983314447865e-06
2043-12-03T07:51:07.702600     9.64373453610549569e+07    1.05501481339856207e+08    4.70613540697574764e+07   -2.27223325115774735e+01    1.74252440217608644e+01    7.61388471875697626e+00   -3.75583842013670448e-06   -4.10854502657985016e-06   -1.83271452345646701e-06
2043-12-04T04:06:28.408654     9.47704887107158601e+07    1.06761175571762219e+08    4.76116722876675129e+07   -2.29938418512617915e+01    1.71238598493729697e+01    7.47946158770925074e+00   -3.69073682836731696e-06   -4.15739296351204940e-06   -1.85405263310816397e-06
2043-12-05T00:21:49.114707     9.30840071728411317e+07    1.07998763561645746e+08    4.81521318906251192e+07   -2.32605766076300995e+01    1.68189447251076274e+01    7.34349632334366120e+00   -3.62488786593914623e-06   -4.20538705636402772e-06   -1.87501000842092406e-06
2043-12-05T20:37:09.820761     9.13782508677003831e+07    1.09213990057745531e+08    4.86826214185563326e+07   -2.35224827630800171e+01    1.65105612540851219e+01    7.20601683843606722e+00   -3.55830475013776987e-06   -4.25251794398372196e-06   -1.89558256386200941e-06
2043-12-06T16:52:30.526815     8.96535738178715110e+07    1.10406604397450000e+08    4.92030314572431669e+07   -2.37795072679151716e+01    1.61987727188210862e+01    7.06705134135547475e+00   -3.49100080773557419e-06   -4.29877640629461796e-06   -1.91576627669563301e-06
2043-12-07T13:07:51.232868     8.79103338950814605e+07    1.11576360598770335e+08    4.97132546785652041e+07   -2.40315980476864581e+01    1.58836430694787847e+01    6.92662833172709469e+00   -3.42298945684450790e-06   -4.34415334894163935e-06   -1.93555718009069123e-06
2043-12-08T09:23:11.938922     8.61488927773088515e+07    1.12723017476532131e+08    5.02131858917197213e+07   -2.42787040090963657e+01    1.55652369153609094e+01    6.78477659665160537e+00   -3.35428418561584116e-06   -4.38863978461948952e-06   -1.95495135474488909e-06
2043-12-09T05:40:54.379385     8.43661403527177721e+07    1.13848499024351493e+08    5.07036633029229566e+07   -2.45212406325198096e+01    1.52429912976307786e+01    6.64124542227016512e+00   -3.28476347810251360e-06   -4.43231112186288676e-06   -1.97398165495478847e-06
